NORAD_CAT_ID,OBJECT_NAME,OBJECT_TYPE,EPOCH,MEAN_MOTION,ECCENTRICITY,INCLINATION,RA_OF_ASC_NODE,ARG_OF_PERICENTER,MEAN_ANOMALY,BSTAR,MEAN_MOTION_DOT,MEAN_MOTION_DDOT,TLE_LINE0,TLE_LINE1,TLE_LINE2,SEMIMAJOR_AXIS,PERIOD,APOGEE,PERIGEE,DECAYED
52358.0,STARLINK-3837,PAYLOAD,2022-07-27 22:00:00,15.08826284,0.0001740999999999,53.2156,8.2849,53.2844,24.5887,0.0027936999999999,0.00044438,0.0,0 STARLINK-3837,1 52358U 22045AD  22208.91667824  .00044438  00000-0  27937-2 0  9996,2 52358  53.2156   8.2849 0001741  53.2844  24.5887 15.08826284  1309,6917.922,95.438,540.992,538.5830000000002,0.0
52358.0,STARLINK-3837,PAYLOAD,2022-07-28 08:00:01,15.08843579,0.0001662,53.2156,6.4122,61.4649,120.912,5.235600000000001e-05,5.45e-06,0.0,0 STARLINK-3837,1 52358U 22045AD  22209.33334491  .00000545  00000-0  52356-4 0  9990,2 52358  53.2156   6.4122 0001662  61.4649 120.9120 15.08843579 16458,6917.869000000002,95.437,540.884,538.585,0.0
52358.0,STARLINK-3837,PAYLOAD,2022-07-28 14:00:01,15.08855036,0.0001797,53.2159,5.2909,61.0083,40.0686,-0.0026197,-0.00041757,0.0,0 STARLINK-3837,1 52358U 22045AD  22209.58334491 -.00041757  00000-0 -26197-2 0  9991,2 52358  53.2159   5.2909 0001797  61.0083  40.0686 15.08855036  1306,6917.834,95.437,540.943,538.456,0.0
52358.0,STARLINK-3837,PAYLOAD,2022-07-28 22:00:00,15.08816777,0.0001892,53.2159,3.7955,54.9254,57.7493,0.0025694,0.00040815,0.0,0 STARLINK-3837,1 52358U 22045AD  22209.91667824  .00040815  00000-0  25694-2 0  9990,2 52358  53.2159   3.7955 0001892  54.9254  57.7493 15.08816777  1307,6917.951,95.439,541.125,538.507,0.0
52358.0,STARLINK-3837,PAYLOAD,2022-07-29 14:00:01,15.08861488,0.0001855,53.2165,0.8016,60.5398,75.3103,-0.0020285999999999,-0.00032448,0.0,0 STARLINK-3837,1 52358U 22045AD  22210.58334491 -.00032448  00000-0 -20286-2 0  9993,2 52358  53.2165   0.8016 0001855  60.5398  75.3103 15.08861488 16647,6917.815,95.436,540.9630000000002,538.396,0.0
52358.0,STARLINK-3837,PAYLOAD,2022-07-29 22:00:00,15.08831167,0.0001871,53.2165,359.3061,53.9123,93.5469,-0.00022966,-3.94e-05,0.0,0 STARLINK-3837,1 52358U 22045AD  22210.91667824 -.00003940  00000-0 -22966-3 0  9992,2 52358  53.2165 359.3061 0001871  53.9123  93.5469 15.08831167  1304,6917.906999999997,95.438,541.067,538.4780000000002,0.0
52358.0,STARLINK-3837,PAYLOAD,2022-07-30 14:00:01,15.08842615,0.0001789,53.2171,356.3126,58.7844,111.8325,-0.0015503,-0.00024878,0.0,0 STARLINK-3837,1 52358U 22045AD  22211.58334491 -.00024878  00000-0 -15503-2 0  9998,2 52358  53.2171 356.3126 0001789  58.7844 111.8325 15.08842615 16795,6917.871999999999,95.437,540.975,538.5,0.0
52358.0,STARLINK-3837,PAYLOAD,2022-07-30 22:00:00,15.08824767,0.000185,53.2169,354.81699999999995,53.928,128.2747,0.0013498,0.0002125,0.0,0 STARLINK-3837,1 52358U 22045AD  22211.91667824  .00021250  00000-0  13498-2 0  9994,2 52358  53.2169 354.8170 0001850  53.9280 128.2747 15.08824767  1303,6917.927,95.439,541.072,538.512,0.0
52358.0,STARLINK-3837,PAYLOAD,2022-07-31 06:00:02,15.08815677,0.0001683,53.2172,353.319,60.7328,133.1275,0.0025848,0.00041062,0.0,0 STARLINK-3837,1 52358U 22045AD  22212.25002315  .00041062  00000-0  25848-2 0  9995,2 52358  53.2172 353.3190 0001683  60.7328 133.1275 15.08815677 16897,6917.955,95.439,540.984,538.655,0.0
52358.0,STARLINK-3837,PAYLOAD,2022-07-31 14:00:01,15.08852099,0.0001773,53.2173,351.8239,59.0859,146.2929,-0.0014765,-0.00023718,0.0,0 STARLINK-3837,1 52358U 22045AD  22212.58334491 -.00023718  00000-0 -14765-2 0  9990,2 52358  53.2173 351.8239 0001773  59.0859 146.2929 15.08852099  1305,6917.843000000003,95.437,540.935,538.482,0.0
52358.0,STARLINK-3837,PAYLOAD,2022-07-31 22:00:00,15.08841705,0.0001811999999999,53.217,350.32800000000015,54.9922,161.9843,0.00055106,8.493e-05,0.0,0 STARLINK-3837,1 52358U 22045AD  22212.91667824  .00008493  00000-0  55106-3 0  9992,2 52358  53.2170 350.3280 0001812  54.9922 161.9843 15.08841705  1302,6917.875,95.437,540.994,538.487,0.0
52358.0,STARLINK-3837,PAYLOAD,2022-08-01 14:00:01,15.08864962,0.000172,53.2171,347.3351,59.4811,180.7023,-0.0018276,-0.00029277,0.0,0 STARLINK-3837,1 52358U 22045AD  22213.58334491 -.00029277  00000-0 -18276-2 0  9998,2 52358  53.2171 347.3351 0001720  59.4811 180.7023 15.08864962  1302,6917.804,95.436,540.859,538.479,0.0
52358.0,STARLINK-3837,PAYLOAD,2022-08-01 22:00:00,15.08852515,0.0001689,53.2166,345.839,54.6105,197.1854,-0.0021149999999999,-0.00033802,0.0,0 STARLINK-3837,1 52358U 22045AD  22213.91667824 -.00033802  00000-0 -21150-2 0  9998,2 52358  53.2166 345.8390 0001689  54.6105 197.1854 15.08852515  1304,6917.842,95.437,540.876,538.539,0.0
52358.0,STARLINK-3837,PAYLOAD,2022-08-02 06:00:02,15.08808753,0.0001521999999999,53.2166,344.3411,61.9748,201.4873,0.0027946,0.00044431,0.0,0 STARLINK-3837,1 52358U 22045AD  22214.25002315  .00044431  00000-0  27946-2 0  9991,2 52358  53.2166 344.3411 0001522  61.9748 201.4873 15.08808753 17191,6917.976,95.44,540.894,538.788,0.0
52358.0,STARLINK-3837,PAYLOAD,2022-08-02 14:00:01,15.08842937,0.0001626999999999,53.2165,342.8463,58.4002,216.5764,-0.0012532,-0.00020179,0.0,0 STARLINK-3837,1 52358U 22045AD  22214.58334491 -.00020179  00000-0 -12532-2 0  9990,2 52358  53.2165 342.8463 0001627  58.4002 216.5764 15.08842937  1304,6917.871,95.437,540.862,538.611,0.0
52358.0,STARLINK-3837,PAYLOAD,2022-08-03 06:00:00,15.08819567,0.0001530999999999,53.216,339.8522,63.0929,235.0757,0.0028944,0.00046052,0.0,0 STARLINK-3837,1 52358U 22045AD  22215.25001157  .00046052  00000-0  28944-2 0  9995,2 52358  53.2160 339.8522 0001531  63.0929 235.0757 15.08819567 17347,6917.943,95.439,540.867,538.749,0.0
52358.0,STARLINK-3837,PAYLOAD,2022-08-03 14:00:01,15.08857084,0.000162,53.2159,338.3574,57.9799,251.78,-0.0017495999999999,-0.00028038,0.0,0 STARLINK-3837,1 52358U 22045AD  22215.58334491 -.00028038  00000-0 -17496-2 0  9997,2 52358  53.2159 338.3574 0001620  57.9799 251.7800 15.08857084  1301,6917.828,95.436,540.814,538.572,0.0
52358.0,STARLINK-3837,PAYLOAD,2022-08-03 22:00:01,15.08853656,0.0001568,53.2156,336.8608,52.8225,268.603,-0.0029241,-0.00046542,0.0,0 STARLINK-3837,1 52358U 22045AD  22215.91668981 -.00046542  00000-0 -29241-2 0  9999,2 52358  53.2156 336.8608 0001568  52.8225 268.6030 15.08853656 17454,6917.839,95.437,540.788,538.619,0.0
52358.0,STARLINK-3837,PAYLOAD,2022-08-04 14:00:01,15.08837227,0.0001599,53.2156,333.8682,54.9282,289.6054,-0.0010124,-0.00016363,0.0,0 STARLINK-3837,1 52358U 22045AD  22216.58334491 -.00016363  00000-0 -10124-2 0  9997,2 52358  53.2156 333.8682 0001599  54.9282 289.6054 15.08837227  1305,6917.889,95.438,540.86,538.648,0.0
52358.0,STARLINK-3837,PAYLOAD,2022-08-04 22:00:00,15.08849825,0.0001583,53.2155,332.3715,51.3137,304.8011,-0.0014404,-0.00023145,0.0,0 STARLINK-3837,1 52358U 22045AD  22216.91667824 -.00023145  00000-0 -14404-2 0  9994,2 52358  53.2155 332.3715 0001583  51.3137 304.8011 15.08849825  1308,6917.85,95.437,540.81,538.62,0.0
52358.0,STARLINK-3837,PAYLOAD,2022-08-05 06:00:02,15.08822008,0.0001501,53.2156,330.8735,59.2772,308.5038,0.0029008,0.00046158,0.0,0 STARLINK-3837,1 52358U 22045AD  22217.25002315  .00046158  00000-0  29008-2 0  9993,2 52358  53.2156 330.8735 0001501  59.2772 308.5038 15.08822008 17655,6917.935,95.439,540.839,538.762,0.0
52358.0,STARLINK-3837,PAYLOAD,2022-08-05 14:00:01,15.08857424,0.0001641,53.2157,329.3787,52.9425,326.4317,-0.0016309,-0.00026163,0.0,0 STARLINK-3837,1 52358U 22045AD  22217.58335648 -.00026163  00000-0 -16309-2 0  9993,2 52358  53.2157 329.3787 0001641  52.9425 326.4317 15.08857424  1300,6917.8269999999975,95.436,540.827,538.557,0.0
52358.0,STARLINK-3837,PAYLOAD,2022-08-05 22:00:00,15.08856509,0.0001565999999999,53.2157,327.8819,49.0501,341.8643,-0.0031372,-0.00049894,0.0,0 STARLINK-3837,1 52358U 22045AD  22217.91667824 -.00049894  00000-0 -31372-2 0  9997,2 52358  53.2157 327.8819 0001566  49.0501 341.8643 15.08856509  1303,6917.83,95.437,540.778,538.612,0.0
52358.0,STARLINK-3837,PAYLOAD,2022-08-06 13:45:42,15.08833689,0.0001481,53.2173,324.9331,53.8139,306.2990000000001,3.2598e-05,2.31e-06,0.0,0 STARLINK-3837,1 52358U 22045AD  22218.57341318  .00000231  00000-0  32598-4 0  9990,2 52358  53.2173 324.9331 0001481  53.8139 306.2990 15.08833689 17855,6917.9,95.438,540.789,538.74,0.0
52358.0,STARLINK-3837,PAYLOAD,2022-08-06 22:00:00,15.0885682,0.0001587,53.2162,323.3923,48.5296,17.1521,-0.0017169,-0.00027521,0.0,0 STARLINK-3837,1 52358U 22045AD  22218.91667824 -.00027521  00000-0 -17169-2 0  9999,2 52358  53.2162 323.3923 0001587  48.5296  17.1521 15.08856820  1308,6917.829000000002,95.436,540.7919999999998,538.596,0.0
52358.0,STARLINK-3837,PAYLOAD,2022-08-07 12:01:07,15.08836578,0.0001536,53.2173,320.7698,56.4475,303.6664,-4.0371e-05,-9.3e-06,0.0,0 STARLINK-3837,1 52358U 22045AD  22219.50077608 -.00000930  00000-0 -40371-4 0  9998,2 52358  53.2173 320.7698 0001536  56.4475 303.6664 15.08836578 17992,6917.891,95.438,540.818,538.693,0.0
52358.0,STARLINK-3837,PAYLOAD,2022-08-07 22:00:00,15.08850527,0.0001673,53.2165,318.903,51.5074,48.9249,-0.0015548,-0.00024955,0.0,0 STARLINK-3837,1 52358U 22045AD  22219.91667824 -.00024955  00000-0 -15548-2 0  9997,2 52358  53.2165 318.9030 0001673  51.5074  48.9249 15.08850527  1301,6917.848000000001,95.437,540.871,538.556,0.0
52358.0,STARLINK-3837,PAYLOAD,2022-08-08 14:00:01,15.0886362,0.0001696999999999,53.2167,315.9108,50.9483,72.7628,-0.0004883,-8.056e-05,0.0,0 STARLINK-3837,1 52358U 22045AD  22220.58335648 -.00008056  00000-0 -48830-3 0  9993,2 52358  53.2167 315.9108 0001697  50.9483  72.7628 15.08863620  1303,6917.808000000001,95.436,540.847,538.499,0.0
52358.0,STARLINK-3837,PAYLOAD,2022-08-08 22:00:00,15.0887775,0.0001585,53.2165,314.4136,50.0273,85.2497,-0.0027645,-0.00044062,0.0,0 STARLINK-3837,1 52358U 22045AD  22220.91667824 -.00044062  00000-0 -27645-2 0  9991,2 52358  53.2165 314.4136 0001585  50.0273  85.2497 15.08877750  1302,6917.765,95.435,540.726,538.534,0.0
